! Orbits computed with differential corrections
format  = 'OEF1.1'       ! file format
rectype = 'ML'           ! record type (1L/ML)
refsys  = ECLM J2000     ! default reference system
END_OF_HEADER
1996RO13=1220T-2
! Equinoctial elements: a, e*sin(LP), e*cos(LP), tan(i/2)*sin(LN), tan(i/2)*cos(LN), mean long.
 EQU   3.21091158030753E+00  0.115642935972675  0.105866708446674 -0.002395083483627 -0.000595963849063  12.9527217224799
 MJD     46152.87176056 TDT
 MAG  14.395  0.075
! RMS    2.12697E-05   1.44546E-04   2.04592E-03   3.50296E-06   1.27495E-05   1.59136E-02
! EIG   8.67490E-08   2.67442E-07   3.32185E-07   4.67410E-06   2.56042E-04   2.05399E-03
! WEA   0.00990   0.02218  -0.99604  -0.00170  -0.00574  -0.08528
 COV   4.523985201258661E-10  6.620874007060056E-11 -4.148605371656629E-08
 COV  -7.090784842004821E-11 -2.474923691364815E-10 -2.813817304938556E-07
 COV   2.089350201051150E-08 -9.531212336582016E-08 -1.581967953863782E-10
 COV  -3.684673769179979E-10  1.236974926517472E-06  4.185778631146639E-06
 COV   7.134181956855006E-09  2.411738634369134E-08  2.034200313360774E-05
 COV   1.227074361504502E-11  4.117767261037452E-11  3.505679160617889E-08
 COV   1.625503046342180E-10  1.336123998969604E-07  2.532438291868620E-04
 NOR   1.327747062261285E+14  2.872803568104537E+12  1.202027567236923E+12
 NOR   1.459714747277150E+11 -1.045165150649847E+11  3.697618031860125E+10
 NOR   1.002063269196249E+13  7.856340350096431E+11  8.044361552404478E+10
 NOR  -9.328100677925146E+09 -1.088668607805488E+11  6.885329737765062E+10
 NOR  -8.052471674072499E+09 -1.703446595633878E+09 -8.030541584730556E+09
 NOR   9.064156731612770E+12 -1.315431582309968E+10 -8.317371436407468E+08
 NOR   4.587566314011214E+10  4.388140653996697E+07  1.218002415800399E+09
